{
    "links": {
        "self": "http://www.neowsapp.com/rest/v1/neo/3325672?api_key=iIulBulltgU6a56xZRHN4H3l9WmuAYTsLGpBGhQ2"
    },
    "id": "3325672",
    "neo_reference_id": "3325672",
    "name": "(2006 EY)",
    "designation": "2006 EY",
    "nasa_jpl_url": "http://ssd.jpl.nasa.gov/sbdb.cgi?sstr=3325672",
    "absolute_magnitude_h": 25.1,
    "estimated_diameter": {
        "kilometers": {
            "estimated_diameter_min": 0.0253837029,
            "estimated_diameter_max": 0.0567596853
        },
        "meters": {
            "estimated_diameter_min": 25.3837029364,
            "estimated_diameter_max": 56.7596852866
        },
        "miles": {
            "estimated_diameter_min": 0.0157726969,
            "estimated_diameter_max": 0.0352688224
        },
        "feet": {
            "estimated_diameter_min": 83.279867942,
            "estimated_diameter_max": 186.2194458756
        }
    },
    "is_potentially_hazardous_asteroid": false,
    "close_approach_data": [
        {
            "close_approach_date": "1999-10-14",
            "close_approach_date_full": "1999-Oct-14 13:37",
            "epoch_date_close_approach": 939908220000,
            "relative_velocity": {
                "kilometers_per_second": "7.6387273374",
                "kilometers_per_hour": "27499.4184144718",
                "miles_per_hour": "17087.0691809256"
            },
            "miss_distance": {
                "astronomical": "0.0469846808",
                "lunar": "18.2770408312",
                "kilometers": "7028808.170309896",
                "miles": "4367498.8734167248"
            },
            "orbiting_body": "Mars"
        },
        {
            "close_approach_date": "2006-04-05",
            "close_approach_date_full": "2006-Apr-05 05:00",
            "epoch_date_close_approach": 1144213200000,
            "relative_velocity": {
                "kilometers_per_second": "4.4076751415",
                "kilometers_per_hour": "15867.6305092476",
                "miles_per_hour": "9859.5285239267"
            },
            "miss_distance": {
                "astronomical": "0.0500471729",
                "lunar": "19.4683502581",
                "kilometers": "7486950.465361723",
                "miles": "4652175.2949408574"
            },
            "orbiting_body": "Earth"
        }
    ],
    "orbital_data": {
        "orbit_id": "10",
        "orbit_determination_date": "2017-04-06 09:08:58",
        "first_observation_date": "2006-03-04",
        "last_observation_date": "2006-03-25",
        "data_arc_in_days": 21,
        "observations_used": 40,
        "orbit_uncertainty": "8",
        "minimum_orbit_intersection": ".0489318",
        "jupiter_tisserand_invariant": "4.643",
        "epoch_osculation": "2453804.5",
        "eccentricity": ".2774116319064013",
        "semi_major_axis": "1.430375178035869",
        "inclination": "3.945339308866242",
        "ascending_node_longitude": "350.0806078833271",
        "orbital_period": "624.8465472723865",
        "perihelion_distance": "1.033572465658529",
        "perihelion_argument": "218.2552829997105",
        "aphelion_distance": "1.827177890413208",
        "perihelion_time": "2453842.580297225975",
        "mean_anomaly": "338.0603620821882",
        "mean_motion": ".5761414567648508",
        "equinox": "J2000",
        "orbit_class": {
            "orbit_class_type": "AMO",
            "orbit_class_description": "Near-Earth asteroid orbits similar to that of 1221 Amor",
            "orbit_class_range": "1.017 AU < q (perihelion) < 1.3 AU"
        }
    },
    "is_sentry_object": false
}